NORAD_CAT_ID,OBJECT_NAME,OBJECT_TYPE,EPOCH,MEAN_MOTION,ECCENTRICITY,INCLINATION,RA_OF_ASC_NODE,ARG_OF_PERICENTER,MEAN_ANOMALY,BSTAR,MEAN_MOTION_DOT,MEAN_MOTION_DDOT,TLE_LINE0,TLE_LINE1,TLE_LINE2,SEMIMAJOR_AXIS,PERIOD,APOGEE,PERIGEE,DECAYED
50175.0,STARLINK-3291,PAYLOAD,2022-10-09 11:19:47,15.08844461,0.0001839,53.2179,88.0983,49.2121,310.9031,3.5219e-05,2.72e-06,0.0,0 STARLINK-3291,1 50175U 21125V   22282.47208102  .00000272  00000-0  35219-4 0  9994,2 50175  53.2179  88.0983 0001839  49.2121 310.9031 15.08844461 48317,6917.8669999999975,95.437,541.004,538.46,0.0
50175.0,STARLINK-3291,PAYLOAD,2022-10-09 17:41:19,15.08852662,0.0001906,53.2178,86.9095,47.8884,312.2270000000001,0.00015409,2.166e-05,0.0,0 STARLINK-3291,1 50175U 21125V   22282.73703240  .00002166  00000-0  15409-3 0  9998,2 50175  53.2178  86.9095 0001906  47.8884 312.2270 15.08852662 47863,6917.842,95.437,541.025,538.388,0.0
50175.0,STARLINK-3291,PAYLOAD,2022-10-09 19:16:42,15.08858294,0.0001943,53.2177,86.6122,47.43899999999999,312.6765,0.00010693,1.415e-05,0.0,0 STARLINK-3291,1 50175U 21125V   22282.80326948  .00001415  00000-0  10693-3 0  9998,2 50175  53.2177  86.6122 0001943  47.4390 312.6765 15.08858294 48365,6917.824000000001,95.436,541.034,538.345,0.0
50175.0,STARLINK-3291,PAYLOAD,2022-10-10 09:35:11,15.08841337,0.0001954,53.2178,83.9359,50.9151,309.2015,5.7465e-05,6.27e-06,0.0,0 STARLINK-3291,1 50175U 21125V   22283.39944105  .00000627  00000-0  57465-4 0  9997,2 50175  53.2178  83.9359 0001954  50.9151 309.2015 15.08841337 47969,6917.876,95.437,541.0930000000002,538.39,0.0
50175.0,STARLINK-3291,PAYLOAD,2022-10-10 20:42:53,15.08838731,0.0001994,53.2166,81.8539,48.549,311.5673,-1.689e-06,-3.15e-06,0.0,0 STARLINK-3291,1 50175U 21125V   22283.86312241 -.00000315  00000-0 -16890-5 0  9993,2 50175  53.2166  81.8539 0001994  48.5490 311.5673 15.08838731 48529,6917.884,95.438,541.129,538.37,0.0
50175.0,STARLINK-3291,PAYLOAD,2022-10-11 03:04:26,15.08835631,0.0002085,53.217,80.6648,51.2284,308.8894,5.2116e-05,5.41e-06,0.0,0 STARLINK-3291,1 50175U 21125V   22284.12808510  .00000541  00000-0  52116-4 0  9991,2 50175  53.2170  80.6648 0002085  51.2284 308.8894 15.08835631 48076,6917.894,95.438,541.201,538.316,0.0
50175.0,STARLINK-3291,PAYLOAD,2022-10-11 09:25:59,15.08836779,0.0002026999999999,53.218,79.476,52.5557,307.562,-2.8374e-05,-7.400000000000001e-06,0.0,0 STARLINK-3291,1 50175U 21125V   22284.39304798 -.00000740  00000-0 -28374-4 0  9991,2 50175  53.2180  79.4760 0002027  52.5557 307.5620 15.08836779 48607,6917.89,95.438,541.1569999999998,538.3530000000002,0.0
50175.0,STARLINK-3291,PAYLOAD,2022-10-11 14:12:09,15.08823947,0.0001921,53.218,78.5836,48.2027,311.9129,-0.00012062,-2.206e-05,0.0,0 STARLINK-3291,1 50175U 21125V   22284.59177944 -.00002206  00000-0 -12062-3 0  9999,2 50175  53.2180  78.5836 0001921  48.2027 311.9129 15.08823947 48142,6917.929,95.439,541.123,538.466,0.0
50175.0,STARLINK-3291,PAYLOAD,2022-10-12 02:55:14,15.08835815,0.0001795,53.2178,76.2037,44.8887,315.225,-7.5083e-05,-1.483e-05,0.0,0 STARLINK-3291,1 50175U 21125V   22285.12169248 -.00001483  00000-0 -75083-4 0  9996,2 50175  53.2178  76.2037 0001795  44.8887 315.2250 15.08835815 48220,6917.893,95.438,541.0,538.516,0.0
50175.0,STARLINK-3291,PAYLOAD,2022-10-12 12:27:32,15.08836142,0.0001981,53.2182,74.4203,44.9695,315.1458,0.0001209,1.636e-05,0.0,0 STARLINK-3291,1 50175U 21125V   22285.51913110  .00001636  00000-0  12090-3 0  9990,2 50175  53.2182  74.4203 0001981  44.9695 315.1458 15.08836142 48778,6917.892,95.438,541.128,538.387,0.0
50175.0,STARLINK-3291,PAYLOAD,2022-10-12 18:49:05,15.08840737,0.0001904,53.2184,73.2311,43.7454,316.3688,0.00016435,2.329e-05,0.0,0 STARLINK-3291,1 50175U 21125V   22285.78408810  .00002329  00000-0  16435-3 0  9992,2 50175  53.2184  73.2311 0001904  43.7454 316.3688 15.08840737 48326,6917.878000000002,95.438,541.06,538.4259999999998,0.0
50175.0,STARLINK-3291,PAYLOAD,2022-10-14 08:58:21,15.08841229,0.0002072,53.2188,66.0954,46.2275,313.8888,8.5412e-05,1.071e-05,0.0,0 STARLINK-3291,1 50175U 21125V   22287.37385482  .00001071  00000-0  85412-4 0  9993,2 50175  53.2188  66.0954 0002072  46.2275 313.8888 15.08841229 49051,6917.877,95.437,541.175,538.308,0.0
50175.0,STARLINK-3291,PAYLOAD,2022-10-14 13:44:31,15.08824814,0.00021,53.2188,65.2027,43.9513,316.1646,0.00029216,4.363e-05,0.0,0 STARLINK-3291,1 50175U 21125V   22287.57258205  .00004363  00000-0  29216-3 0  9993,2 50175  53.2188  65.2027 0002100  43.9513 316.1646 15.08824814 48591,6917.927,95.439,541.245,538.339,0.0
50175.0,STARLINK-3291,PAYLOAD,2022-10-15 08:49:08,15.08838383,0.00022,53.2184,61.6332,49.3658,310.7526,2.6464e-05,1.33e-06,0.0,0 STARLINK-3291,1 50175U 21125V   22288.36745471  .00000133  00000-0  26464-4 0  9991,2 50175  53.2184  61.6332 0002200  49.3658 310.7526 15.08838383 49209,6917.885,95.438,541.2719999999998,538.2280000000002,0.0
50175.0,STARLINK-3291,PAYLOAD,2022-10-15 16:46:04,15.08833453,0.0002091,53.2186,60.1463,46.4548,313.6618,-2.4602e-05,-6.8e-06,0.0,0 STARLINK-3291,1 50175U 21125V   22288.69866117 -.00000680  00000-0 -24602-4 0  9999,2 50175  53.2186  60.1463 0002091  46.4548 313.6618 15.08833453 49256,6917.9,95.438,541.212,538.319,0.0
50175.0,STARLINK-3291,PAYLOAD,2022-10-16 11:50:41,15.08843219,0.0002129,53.219,56.5781,46.8891,313.2279,4.6223e-05,4.48e-06,0.0,0 STARLINK-3291,1 50175U 21125V   22289.49353290  .00000448  00000-0  46223-4 0  9994,2 50175  53.2190  56.5781 0002129  46.8891 313.2279 15.08843219 48888,6917.871,95.437,541.2080000000002,538.263,0.0
50175.0,STARLINK-3291,PAYLOAD,2022-10-16 18:12:14,15.08831687,0.0002082,53.2194,55.3892,44.1955,315.9203,0.00013138,1.803e-05,0.0,0 STARLINK-3291,1 50175U 21125V   22289.75849786  .00001803  00000-0  13138-3 0  9997,2 50175  53.2194  55.3892 0002082  44.1955 315.9203 15.08831687 48929,6917.906,95.438,541.211,538.33,0.0
50175.0,STARLINK-3291,PAYLOAD,2022-10-17 13:16:51,15.08837937,0.0002139,53.2191,51.8219,41.9805,318.1351,0.00011575,1.554e-05,0.0,0 STARLINK-3291,1 50175U 21125V   22290.55337432  .00001554  00000-0  11575-3 0  9993,2 50175  53.2191  51.8219 0002139  41.9805 318.1351 15.08837937 49533,6917.887,95.438,541.231,538.2719999999998,0.0
50175.0,STARLINK-3291,PAYLOAD,2022-10-17 18:03:00,15.08841381,0.0002191999999999,53.2188,50.9304,39.7065,320.4087,0.00010164,1.33e-05,0.0,0 STARLINK-3291,1 50175U 21125V   22290.75209317  .00001330  00000-0  10164-3 0  9990,2 50175  53.2188  50.9304 0002192  39.7065 320.4087 15.08841381 49075,6917.876,95.437,541.258,538.225,0.0
50175.0,STARLINK-3291,PAYLOAD,2022-10-18 08:21:29,15.08835334,0.000216,53.2187,48.2534,40.7617,319.3537,4.527e-06,-2.16e-06,0.0,0 STARLINK-3291,1 50175U 21125V   22291.34825970 -.00000216  00000-0  45270-5 0  9996,2 50175  53.2187  48.2534 0002160  40.7617 319.3537 15.08835334 49651,6917.895,95.438,541.254,538.265,0.0
50175.0,STARLINK-3291,PAYLOAD,2022-10-18 17:53:48,15.08835,0.0002145,53.2191,46.4689,42.7543,317.3615,2.1615e-05,5.6e-07,0.0,0 STARLINK-3291,1 50175U 21125V   22291.74570042  .00000056  00000-0  21615-4 0  9994,2 50175  53.2191  46.4689 0002145  42.7543 317.3615 15.08835000 49712,6917.896,95.438,541.245,538.2769999999998,0.0
50175.0,STARLINK-3291,PAYLOAD,2022-10-19 11:23:02,15.08841601,0.0001858,53.2191,43.1985,41.8224,318.291,3.302e-05,2.37e-06,0.0,0 STARLINK-3291,1 50175U 21125V   22292.47433432  .00000237  00000-0  33020-4 0  9990,2 50175  53.2191  43.1985 0001858  41.8224 318.2910 15.08841601 49331,6917.875,95.437,541.026,538.455,0.0
50175.0,STARLINK-3291,PAYLOAD,2022-10-19 16:09:11,15.08842476,0.0001925,53.2189,42.3064,39.3202,320.793,3.5556e-05,2.78e-06,0.0,0 STARLINK-3291,1 50175U 21125V   22292.67305365  .00000278  00000-0  35556-4 0  9996,2 50175  53.2189  42.3064 0001925  39.3202 320.7930 15.08842476 49858,6917.873000000001,95.437,541.07,538.406,0.0
50175.0,STARLINK-3291,PAYLOAD,2022-10-20 11:13:49,15.08836147,0.0001988,53.2182,38.7381,40.9435,319.1706,7.2665e-05,8.68e-06,0.0,0 STARLINK-3291,1 50175U 21125V   22293.46793657  .00000868  00000-0  72665-4 0  9996,2 50175  53.2182  38.7381 0001988  40.9435 319.1706 15.08836147 49971,6917.892,95.438,541.132,538.382,0.0
50175.0,STARLINK-3291,PAYLOAD,2022-10-20 15:59:59,15.08830312,0.000208,53.2197,37.8459,36.6746,323.4388,7.1626e-06,-1.74e-06,0.0,0 STARLINK-3291,1 50175U 21125V   22293.66666358 -.00000174  00000-0  71626-5 0  9993,2 50175  53.2197  37.8459 0002080  36.6746 323.4388 15.08830312 49516,6917.91,95.438,541.214,538.336,0.0
50175.0,STARLINK-3291,PAYLOAD,2022-10-21 06:18:29,15.08818701,0.0001694,53.2182,35.1697,35.2962,324.8142,-0.00017811,-3.12e-05,0.0,0 STARLINK-3291,1 50175U 21125V   22294.26283785 -.00003120  00000-0 -17811-3 0  9998,2 50175  53.2182  35.1697 0001694  35.2962 324.8142 15.08818701 49601,6917.945,95.439,540.982,538.639,0.0
50175.0,STARLINK-3291,PAYLOAD,2022-10-21 11:04:41,15.08785238,0.0001958,53.2183,34.2781,29.5283,330.5819,-0.00039406,-6.545e-05,0.0,0 STARLINK-3291,1 50175U 21125V   22294.46159009 -.00006545  00000-0 -39406-3 0  9999,2 50175  53.2183  34.2781 0001958  29.5283 330.5819 15.08785238 50123,6918.0480000000025,95.441,541.2669999999998,538.558,0.0
50175.0,STARLINK-3291,PAYLOAD,2022-10-21 15:50:49,15.08809777,0.0001763,53.2197,33.3846,38.3905,321.7212,-0.00016989,-2.989e-05,0.0,0 STARLINK-3291,1 50175U 21125V   22294.66029247 -.00002989  00000-0 -16989-3 0  9990,2 50175  53.2197  33.3846 0001763  38.3905 321.7212 15.08809777 50150,6917.973000000001,95.439,541.057,538.618,0.0
50175.0,STARLINK-3291,PAYLOAD,2022-10-22 06:09:16,15.08828077,0.0001983,53.2187,30.7095,31.1531,328.9578,7.9892e-05,9.83e-06,0.0,0 STARLINK-3291,1 50175U 21125V   22295.25643815  .00000983  00000-0  79892-4 0  9992,2 50175  53.2187  30.7095 0001983  31.1531 328.9578 15.08828077 49758,6917.917,95.438,541.154,538.41,0.0
